satname,norad_id,inclination_deg,eccentricity,mean_motion_rev_per_day,perigee_km,apogee_km,l1,l2
STARLINK-1394,45679,53.0541,0.0001209,15.06385183,546.4196901504629,548.0942504124769,1 45679U 20035Y   25269.76633408 -.00007054  00000+0 -45531-3 0  9990,2 45679  53.0541  72.4975 0001209  93.0769 267.0358 15.06385183294164
STARLINK-1402,45685,53.0564,0.0001509,15.06412741,546.1274796786556,548.2175380884355,1 45685U 20035AE  25270.39423896  .00001668  00000+0  13083-3 0  9996,2 45685  53.0564  64.1018 0001509 108.1820 251.9334 15.06412741294348
STARLINK-1404,45686,53.0559,0.0001411,15.06397667,546.2415405660577,548.1958759469271,1 45686U 20035AF  25269.85849707  .00001073  00000+0  90920-4 0  9995,2 45686  53.0559  72.0883 0001411  83.2418 276.8731 15.06397667294187
STARLINK-1413,45689,53.0558,0.0001302,15.06392173,546.3338631642746,548.1372301754282,1 45689U 20035AJ  25270.40769866  .00002622  00000+0  19492-3 0  9993,2 45689  53.0558  69.6150 0001302 102.5081 257.6054 15.06392173294179
STARLINK-1417,45693,53.0559,0.0001233,15.06399963,546.3577758467745,548.0655668291274,1 45693U 20035AN  25270.40401205 -.00000004  00000+0  18592-4 0  9992,2 45693  53.0559  69.6404 0001233  75.3716 284.7410 15.06399963294252
STARLINK-1420,45695,53.0571,9.74e-05,15.06403103,546.527519683269,547.8765757297633,1 45695U 20035AQ  25270.40490241  .00000176  00000+0  30666-4 0  9997,2 45695  53.0571  49.6229 0000974  85.7973 274.3127 15.06403103294546
STARLINK-1422,45696,53.0556,0.0001246,15.06392748,546.3708831632339,548.0966855626966,1 45696U 20035AR  25269.68526506  .00000684  00000+0  64847-4 0  9992,2 45696  53.0556  72.8653 0001246 110.5264 249.5859 15.06392748294146
STARLINK-1351,45697,53.0565,0.0001238,15.06411645,546.31851418733,548.0332216534262,1 45697U 20035AS  25270.39109925  .00004663  00000+0  33161-3 0  9990,2 45697  53.0565  49.6920 0001238  81.6965 278.4164 15.06411645294545
STARLINK-1398,45699,53.0534,0.0003121,15.44033437,432.0934711750224,436.3457441695318,1 45699U 20035AU  25269.62495394  .00038418  00000+0  83364-3 0  9999,2 45699  53.0534  22.7898 0003121 184.0012 176.0969 15.44033437294854
STARLINK-1400,45700,53.0559,0.0001289,15.06424676,546.2432629038822,548.0285982653868,1 45700U 20035AV  25270.56436093  .00012374  00000+0  84757-3 0  9998,2 45700  53.0559  48.9185 0001289  84.8584 275.2552 15.06424676294562
STARLINK-1403,45701,53.0555,7.86e-05,15.06412012,546.630413629945,547.7190726359659,1 45701U 20035AW  25270.39481785  .00016010  00000+0  10909-2 0  9996,2 45701  53.0555  49.6786 0000786 104.1678 255.9398 15.06412012294536
STARLINK-1407,45703,53.0448,0.0009083,15.35683022,452.6824098077386,465.1025575678068,1 45703U 20035AY  25270.56782288  .00039011  00000+0  11120-2 0  9991,2 45703  53.0448  15.1230 0009083 274.9926  85.0038 15.35683022295045
STARLINK-1411,45706,53.055,7.9e-05,15.30472212,473.8610633104681,474.94376453786754,1 45706U 20035BB  25270.58339120  .00111853  00000+0  37007-2 0  9996,2 45706  53.0550  41.5773 0000790  39.6893 283.3027 15.30472212  5897
STARLINK-1423,45710,53.0556,0.0001116,15.0640358,546.4277181010493,547.9734534501949,1 45710U 20035BF  25270.55328749  .00004642  00000+0  33028-3 0  9990,2 45710  53.0556  48.9680 0001116  92.0222 268.0895 15.06403580294560
STARLINK-1433,45711,53.0561,0.0001366,15.06412319,546.2278047792515,548.119799690423,1 45711U 20035BG  25270.40216702  .00006281  00000+0  44005-3 0  9998,2 45711  53.0561  49.6453 0001366  77.9351 282.1791 15.06412319294534
STARLINK-1434,45712,53.0535,0.0001713,15.12085213,528.6584791200885,531.0251526624133,1 45712U 20035BH  25270.40148925  .00061344  00000+0  35105-2 0  9991,2 45712  53.0535  47.5905 0001713 123.3573 236.7583 15.12085213294577
STARLINK-1465,45731,53.0529,0.000145,15.06393186,546.2282633765208,548.2366205146855,1 45731U 20038B   25270.36900466  .00000988  00000+0  85257-4 0  9998,2 45731  53.0529 249.7936 0001450  92.9034 267.2121 15.06393186291570
STARLINK-1471,45735,53.0508,0.0003872,15.39051988,446.2679575754255,451.55482384919287,1 45735U 20038F   25270.22249647  .00104777  00000+0  26417-2 0  9996,2 45735  53.0508 198.8669 0003872  73.0464 287.0963 15.39051988292285
STARLINK-1474,45738,53.0387,0.0006301,15.61159246,380.04633552774794,388.5683678997775,1 45738U 20038J   25269.95512477  .00070044  00000+0  81223-3 0  9997,2 45738  53.0387 163.4937 0006301 136.6700 223.4809 15.61159246292754
STARLINK-1475,45739,53.0524,0.000772,15.61339909,378.5654813455003,389.0058899721571,1 45739U 20038K   25270.58339120  .00195048  00000+0  22004-2 0  9994,2 45739  53.0524 128.1406 0007720 112.1830 281.9654 15.61339909  5829
STARLINK-1480,45741,53.0542,0.0001567,15.06392541,546.1492130919896,548.3196244946403,1 45741U 20038M   25270.35057416  .00001367  00000+0  11066-3 0  9994,2 45741  53.0542 249.8769 0001567  85.0719 275.0449 15.06392541291588
STARLINK-1500,45744,53.0374,0.0005555,15.25590661,485.19766320783674,492.8270661519955,1 45744U 20038Q   25270.19402789  .00027051  00000+0  10603-2 0  9999,2 45744  53.0374 234.2946 0005555  88.4064 271.7569 15.25590661291782
STARLINK-1504,45746,53.0296,0.0006646,15.35594663,454.6106881463138,463.6988163433971,1 45746U 20038S   25270.32138032  .00040617  00000+0  11610-2 0  9995,2 45746  53.0296 201.0654 0006646  62.6445 297.5233 15.35594663292258
STARLINK-1506,45747,53.0539,0.0004889,15.19845578,502.9410931542525,509.67270239749723,1 45747U 20038T   25270.27888051  .00011243  00000+0  53178-3 0  9992,2 45747  53.0539 234.9197 0004889 109.6500 250.5023 15.19845578291786
STARLINK-1464,45751,53.053,0.0001555,15.06385109,546.180298286893,548.3340958821855,1 45751U 20038X   25270.15338194  .00001012  00000+0  86843-4 0  9991,2 45751  53.0530 230.7595 0001555  91.0983 269.0184 15.06385109291838
STARLINK-1477,45754,53.0531,0.0001594,15.06395853,546.1203653390503,548.328170511265,1 45754U 20038AA  25270.30081506  .00002904  00000+0  21378-3 0  9995,2 45754  53.0531 230.0975 0001594  91.4535 268.6637 15.06395853291854
STARLINK-1478,45755,53.0538,0.000248,15.06407446,545.4712563318935,548.9062178975037,1 45755U 20038AB  25270.12019481  .00005353  00000+0  37789-3 0  9993,2 45755  53.0538 230.9128 0002480 129.5791 230.5417 15.06407446291815
STARLINK-1484,45756,53.0171,0.0005701,15.5415368,400.7470472096711,408.4807397784325,1 45756U 20038AC  25270.05574447  .00082039  00000+0  12335-2 0  9999,2 45756  53.0171 149.4435 0005701 110.4890 249.6732 15.54153680292950
